CCSDS_OMM_VERS = 2.0
CREATION_DATE  = 
ORIGINATOR     = 

OBJECT_NAME    = STARLINK-37082
OBJECT_ID      = 2026-050R
CENTER_NAME    = EARTH
REF_FRAME      = TEME
TIME_SYSTEM    = UTC
MEAN_ELEMENT_THEORY = SGP/SGP4

EPOCH          = 2026-03-30T03:51:32.023584
MEAN_MOTION    = 15.80924192
ECCENTRICITY   = .0000598
INCLINATION    = 53.1589
RA_OF_ASC_NODE = 179.1166
ARG_OF_PERICENTER = 89.2628
MEAN_ANOMALY   = 270.8463

EPHEMERIS_TYPE = 0
CLASSIFICATION_TYPE = U
NORAD_CAT_ID   = 68182
ELEMENT_SET_NO = 999
REV_AT_EPOCH   = 371
BSTAR          = .11635E-2
MEAN_MOTION_DOT = .235878E-2
MEAN_MOTION_DDOT = 0

CCSDS_OMM_VERS = 2.0
CREATION_DATE  = 
ORIGINATOR     = 

OBJECT_NAME    = STARLINK-37102
OBJECT_ID      = 2026-050S
CENTER_NAME    = EARTH
REF_FRAME      = TEME
TIME_SYSTEM    = UTC
MEAN_ELEMENT_THEORY = SGP/SGP4

EPOCH          = 2026-03-30T05:21:29.554272
MEAN_MOTION    = 15.81056541
ECCENTRICITY   = .0001257
INCLINATION    = 53.1588
RA_OF_ASC_NODE = 178.7947
ARG_OF_PERICENTER = 106.8966
MEAN_ANOMALY   = 253.2195

EPHEMERIS_TYPE = 0
CLASSIFICATION_TYPE = U
NORAD_CAT_ID   = 68183
ELEMENT_SET_NO = 999
REV_AT_EPOCH   = 372
BSTAR          = .26528E-2
MEAN_MOTION_DOT = .563261E-2
MEAN_MOTION_DDOT = 0

CCSDS_OMM_VERS = 2.0
CREATION_DATE  = 
ORIGINATOR     = 

OBJECT_NAME    = STARLINK-36964
OBJECT_ID      = 2026-050T
CENTER_NAME    = EARTH
REF_FRAME      = TEME
TIME_SYSTEM    = UTC
MEAN_ELEMENT_THEORY = SGP/SGP4

EPOCH          = 2026-03-29T23:16:16.762944
MEAN_MOTION    = 15.81012615
ECCENTRICITY   = .0003601
INCLINATION    = 53.1589
RA_OF_ASC_NODE = 180.0570
ARG_OF_PERICENTER = 79.4465
MEAN_ANOMALY   = 280.6963

EPHEMERIS_TYPE = 0
CLASSIFICATION_TYPE = U
NORAD_CAT_ID   = 68184
ELEMENT_SET_NO = 999
REV_AT_EPOCH   = 368
BSTAR          = .23575E-2
MEAN_MOTION_DOT = .495465E-2
MEAN_MOTION_DDOT = 0

CCSDS_OMM_VERS = 2.0
CREATION_DATE  = 
ORIGINATOR     = 

OBJECT_NAME    = STARLINK-37061
OBJECT_ID      = 2026-050U
CENTER_NAME    = EARTH
REF_FRAME      = TEME
TIME_SYSTEM    = UTC
MEAN_ELEMENT_THEORY = SGP/SGP4

EPOCH          = 2026-03-30T05:19:19.617312
MEAN_MOTION    = 15.80994217
ECCENTRICITY   = .0000713
INCLINATION    = 53.1591
RA_OF_ASC_NODE = 178.7846
ARG_OF_PERICENTER = 146.3853
MEAN_ANOMALY   = 213.7215

EPHEMERIS_TYPE = 0
CLASSIFICATION_TYPE = U
NORAD_CAT_ID   = 68185
ELEMENT_SET_NO = 999
REV_AT_EPOCH   = 372
BSTAR          = .19418E-2
MEAN_MOTION_DOT = .403267E-2
MEAN_MOTION_DDOT = 0

CCSDS_OMM_VERS = 2.0
CREATION_DATE  = 
ORIGINATOR     = 

OBJECT_NAME    = STARLINK-37079
OBJECT_ID      = 2026-050V
CENTER_NAME    = EARTH
REF_FRAME      = TEME
TIME_SYSTEM    = UTC
MEAN_ELEMENT_THEORY = SGP/SGP4

EPOCH          = 2026-03-30T03:47:12.888384
MEAN_MOTION    = 15.80927376
ECCENTRICITY   = .0000833
INCLINATION    = 53.1592
RA_OF_ASC_NODE = 179.0967
ARG_OF_PERICENTER = 50.8799
MEAN_ANOMALY   = 309.2297

EPHEMERIS_TYPE = 0
CLASSIFICATION_TYPE = U
NORAD_CAT_ID   = 68186
ELEMENT_SET_NO = 999
REV_AT_EPOCH   = 371
BSTAR          = .13408E-2
MEAN_MOTION_DOT = .273155E-2
MEAN_MOTION_DDOT = 0

CCSDS_OMM_VERS = 2.0
CREATION_DATE  = 
ORIGINATOR     = 

OBJECT_NAME    = STARLINK-37006
OBJECT_ID      = 2026-050W
CENTER_NAME    = EARTH
REF_FRAME      = TEME
TIME_SYSTEM    = UTC
MEAN_ELEMENT_THEORY = SGP/SGP4

EPOCH          = 2026-03-29T17:08:53.377152
MEAN_MOTION    = 15.80969216
ECCENTRICITY   = .000095
INCLINATION    = 53.1595
RA_OF_ASC_NODE = 181.3095
ARG_OF_PERICENTER = 89.6553
MEAN_ANOMALY   = 270.4578

EPHEMERIS_TYPE = 0
CLASSIFICATION_TYPE = U
NORAD_CAT_ID   = 68187
ELEMENT_SET_NO = 999
REV_AT_EPOCH   = 364
BSTAR          = .16154E-2
MEAN_MOTION_DOT = .332182E-2
MEAN_MOTION_DDOT = 0

CCSDS_OMM_VERS = 2.0
CREATION_DATE  = 
ORIGINATOR     = 

OBJECT_NAME    = STARLINK-36340
OBJECT_ID      = 2026-050X
CENTER_NAME    = EARTH
REF_FRAME      = TEME
TIME_SYSTEM    = UTC
MEAN_ELEMENT_THEORY = SGP/SGP4

EPOCH          = 2026-03-30T05:16:05.386656
MEAN_MOTION    = 15.81027565
ECCENTRICITY   = .0001496
INCLINATION    = 53.1593
RA_OF_ASC_NODE = 178.7695
ARG_OF_PERICENTER = 124.1028
MEAN_ANOMALY   = 236.0136

EPHEMERIS_TYPE = 0
CLASSIFICATION_TYPE = U
NORAD_CAT_ID   = 68188
ELEMENT_SET_NO = 999
REV_AT_EPOCH   = 362
BSTAR          = .2416E-2
MEAN_MOTION_DOT = .508956E-2
MEAN_MOTION_DDOT = 0

CCSDS_OMM_VERS = 2.0
CREATION_DATE  = 
ORIGINATOR     = 

OBJECT_NAME    = STARLINK-36305
OBJECT_ID      = 2026-050Y
CENTER_NAME    = EARTH
REF_FRAME      = TEME
TIME_SYSTEM    = UTC
MEAN_ELEMENT_THEORY = SGP/SGP4

EPOCH          = 2026-03-30T05:15:00.713664
MEAN_MOTION    = 15.80951522
ECCENTRICITY   = .0002149
INCLINATION    = 53.1593
RA_OF_ASC_NODE = 178.7649
ARG_OF_PERICENTER = 80.5739
MEAN_ANOMALY   = 279.5527

EPHEMERIS_TYPE = 0
CLASSIFICATION_TYPE = U
NORAD_CAT_ID   = 68189
ELEMENT_SET_NO = 999
REV_AT_EPOCH   = 362
BSTAR          = .1729E-2
MEAN_MOTION_DOT = .356295E-2
MEAN_MOTION_DDOT = 0

CCSDS_OMM_VERS = 2.0
CREATION_DATE  = 
ORIGINATOR     = 

OBJECT_NAME    = STARLINK-37071
OBJECT_ID      = 2026-050Z
CENTER_NAME    = EARTH
REF_FRAME      = TEME
TIME_SYSTEM    = UTC
MEAN_ELEMENT_THEORY = SGP/SGP4

EPOCH          = 2026-03-30T03:41:48.626592
MEAN_MOTION    = 15.80931445
ECCENTRICITY   = .0001313
INCLINATION    = 53.1596
RA_OF_ASC_NODE = 179.0719
ARG_OF_PERICENTER = 138.8836
MEAN_ANOMALY   = 221.2286

EPHEMERIS_TYPE = 0
CLASSIFICATION_TYPE = U
NORAD_CAT_ID   = 68190
ELEMENT_SET_NO = 999
REV_AT_EPOCH   = 371
BSTAR          = .11808E-2
MEAN_MOTION_DOT = .239578E-2
MEAN_MOTION_DDOT = 0

CCSDS_OMM_VERS = 2.0
CREATION_DATE  = 
ORIGINATOR     = 

OBJECT_NAME    = STARLINK-37091
OBJECT_ID      = 2026-050AA
CENTER_NAME    = EARTH
REF_FRAME      = TEME
TIME_SYSTEM    = UTC
MEAN_ELEMENT_THEORY = SGP/SGP4

EPOCH          = 2026-03-30T05:11:46.076064
MEAN_MOTION    = 15.80965371
ECCENTRICITY   = .0001132
INCLINATION    = 53.1590
RA_OF_ASC_NODE = 178.7491
ARG_OF_PERICENTER = 88.9897
MEAN_ANOMALY   = 271.1255

EPHEMERIS_TYPE = 0
CLASSIFICATION_TYPE = U
NORAD_CAT_ID   = 68191
ELEMENT_SET_NO = 999
REV_AT_EPOCH   = 372
BSTAR          = .15583E-2
MEAN_MOTION_DOT = .319897E-2
MEAN_MOTION_DDOT = 0

CCSDS_OMM_VERS = 2.0
CREATION_DATE  = 
ORIGINATOR     = 

OBJECT_NAME    = STARLINK-37098
OBJECT_ID      = 2026-050AB
CENTER_NAME    = EARTH
REF_FRAME      = TEME
TIME_SYSTEM    = UTC
MEAN_ELEMENT_THEORY = SGP/SGP4

EPOCH          = 2026-03-29T20:04:27.901920
MEAN_MOTION    = 15.80934604
ECCENTRICITY   = .0001066
INCLINATION    = 53.1597
RA_OF_ASC_NODE = 180.6450
ARG_OF_PERICENTER = 65.3360
MEAN_ANOMALY   = 294.7773

EPHEMERIS_TYPE = 0
CLASSIFICATION_TYPE = U
NORAD_CAT_ID   = 68192
ELEMENT_SET_NO = 999
REV_AT_EPOCH   = 366
BSTAR          = .90408E-3
MEAN_MOTION_DOT = .182064E-2
MEAN_MOTION_DDOT = 0

CCSDS_OMM_VERS = 2.0
CREATION_DATE  = 
ORIGINATOR     = 

OBJECT_NAME    = STARLINK-37090
OBJECT_ID      = 2026-050AC
CENTER_NAME    = EARTH
REF_FRAME      = TEME
TIME_SYSTEM    = UTC
MEAN_ELEMENT_THEORY = SGP/SGP4

EPOCH          = 2026-03-30T03:37:29.525952
MEAN_MOTION    = 15.80929269
ECCENTRICITY   = .000098
INCLINATION    = 53.1593
RA_OF_ASC_NODE = 179.0501
ARG_OF_PERICENTER = 95.2948
MEAN_ANOMALY   = 264.8186

EPHEMERIS_TYPE = 0
CLASSIFICATION_TYPE = U
NORAD_CAT_ID   = 68193
ELEMENT_SET_NO = 999
REV_AT_EPOCH   = 371
BSTAR          = .12244E-2
MEAN_MOTION_DOT = .248698E-2
MEAN_MOTION_DDOT = 0

CCSDS_OMM_VERS = 2.0
CREATION_DATE  = 
ORIGINATOR     = 

OBJECT_NAME    = STARLINK-37093
OBJECT_ID      = 2026-050AD
CENTER_NAME    = EARTH
REF_FRAME      = TEME
TIME_SYSTEM    = UTC
MEAN_ELEMENT_THEORY = SGP/SGP4

EPOCH          = 2026-03-30T05:13:55.668288
MEAN_MOTION    = 15.80974671
ECCENTRICITY   = .0001793
INCLINATION    = 53.1592
RA_OF_ASC_NODE = 178.7591
ARG_OF_PERICENTER = 113.5406
MEAN_ANOMALY   = 246.5805

EPHEMERIS_TYPE = 0
CLASSIFICATION_TYPE = U
NORAD_CAT_ID   = 68194
ELEMENT_SET_NO = 999
REV_AT_EPOCH   = 372
BSTAR          = .18395E-2
MEAN_MOTION_DOT = .380601E-2
MEAN_MOTION_DDOT = 0

CCSDS_OMM_VERS = 2.0
CREATION_DATE  = 
ORIGINATOR     = 

OBJECT_NAME    = STARLINK-37058
OBJECT_ID      = 2026-050AE
CENTER_NAME    = EARTH
REF_FRAME      = TEME
TIME_SYSTEM    = UTC
MEAN_ELEMENT_THEORY = SGP/SGP4

EPOCH          = 2026-03-29T23:05:27.905856
MEAN_MOTION    = 15.81023444
ECCENTRICITY   = .0001981
INCLINATION    = 53.1593
RA_OF_ASC_NODE = 180.0060
ARG_OF_PERICENTER = 70.8621
MEAN_ANOMALY   = 289.2616

EPHEMERIS_TYPE = 0
CLASSIFICATION_TYPE = U
NORAD_CAT_ID   = 68195
ELEMENT_SET_NO = 999
REV_AT_EPOCH   = 212
BSTAR          = .23416E-2
MEAN_MOTION_DOT = .492178E-2
MEAN_MOTION_DDOT = 0

CCSDS_OMM_VERS = 2.0
CREATION_DATE  = 
ORIGINATOR     = 

OBJECT_NAME    = YAOGAN-50 02
OBJECT_ID      = 2026-051A
CENTER_NAME    = EARTH
REF_FRAME      = TEME
TIME_SYSTEM    = UTC
MEAN_ELEMENT_THEORY = SGP/SGP4

EPOCH          = 2026-03-30T03:46:05.657952
MEAN_MOTION    = 13.83266140
ECCENTRICITY   = .0000807
INCLINATION    = 141.9867
RA_OF_ASC_NODE = 305.9351
ARG_OF_PERICENTER = 268.1800
MEAN_ANOMALY   = 91.8827

EPHEMERIS_TYPE = 0
CLASSIFICATION_TYPE = U
NORAD_CAT_ID   = 68196
ELEMENT_SET_NO = 999
REV_AT_EPOCH   = 204
BSTAR          = .71721E-4
MEAN_MOTION_DOT = .266E-5
MEAN_MOTION_DDOT = 0

